[{"OBJECT_NAME":"STARLINK-36928","OBJECT_ID":"2026-040F","EPOCH":"2026-03-14T22:00:01.999584","MEAN_MOTION":15.93295043,"ECCENTRICITY":0.00011788,"INCLINATION":97.2713,"RA_OF_ASC_NODE":22.5436,"ARG_OF_PERICENTER":87.3978,"MEAN_ANOMALY":242.6248,"EPHEMERIS_TYPE":0,"CLASSIFICATION_TYPE":"U","NORAD_CAT_ID":68020,"ELEMENT_SET_NO":999,"REV_AT_EPOCH":326,"BSTAR":-0.0044922921,"MEAN_MOTION_DOT":-0.01570315,"MEAN_MOTION_DDOT":0.00070355252},{"OBJECT_NAME":"STARLINK-36858","OBJECT_ID":"2026-040G","EPOCH":"2026-03-15T01:59:11.872320","MEAN_MOTION":16.06880902,"ECCENTRICITY":3.41e-5,"INCLINATION":97.2747,"RA_OF_ASC_NODE":22.7903,"ARG_OF_PERICENTER":89.7437,"MEAN_ANOMALY":270.3884,"EPHEMERIS_TYPE":0,"CLASSIFICATION_TYPE":"U","NORAD_CAT_ID":68021,"ELEMENT_SET_NO":999,"REV_AT_EPOCH":220,"BSTAR":-0.00026017,"MEAN_MOTION_DOT":-0.00198969,"MEAN_MOTION_DDOT":1.8307e-5},{"OBJECT_NAME":"STARLINK-36916","OBJECT_ID":"2026-040H","EPOCH":"2026-03-14T22:00:01.999584","MEAN_MOTION":15.93435633,"ECCENTRICITY":0.00011526,"INCLINATION":97.2716,"RA_OF_ASC_NODE":22.5493,"ARG_OF_PERICENTER":97.45,"MEAN_ANOMALY":244.7884,"EPHEMERIS_TYPE":0,"CLASSIFICATION_TYPE":"U","NORAD_CAT_ID":68022,"ELEMENT_SET_NO":999,"REV_AT_EPOCH":326,"BSTAR":-0.0045559933,"MEAN_MOTION_DOT":-0.01603902,"MEAN_MOTION_DDOT":0.00073277325},{"OBJECT_NAME":"STARLINK-36871","OBJECT_ID":"2026-040J","EPOCH":"2026-03-14T22:00:01.999584","MEAN_MOTION":15.93482015,"ECCENTRICITY":0.00011198,"INCLINATION":97.2715,"RA_OF_ASC_NODE":22.5503,"ARG_OF_PERICENTER":84.1915,"MEAN_ANOMALY":262.1464,"EPHEMERIS_TYPE":0,"CLASSIFICATION_TYPE":"U","NORAD_CAT_ID":68023,"ELEMENT_SET_NO":999,"REV_AT_EPOCH":326,"BSTAR":-0.0045707831,"MEAN_MOTION_DOT":-0.01612898,"MEAN_MOTION_DDOT":0.00074077526},{"OBJECT_NAME":"STARLINK-36891","OBJECT_ID":"2026-040K","EPOCH":"2026-03-14T22:00:01.999584","MEAN_MOTION":15.93502012,"ECCENTRICITY":0.00011427,"INCLINATION":97.2715,"RA_OF_ASC_NODE":22.5526,"ARG_OF_PERICENTER":84.139,"MEAN_ANOMALY":267.0019,"EPHEMERIS_TYPE":0,"CLASSIFICATION_TYPE":"U","NORAD_CAT_ID":68024,"ELEMENT_SET_NO":999,"REV_AT_EPOCH":326,"BSTAR":-0.0046017445,"MEAN_MOTION_DOT":-0.01625378,"MEAN_MOTION_DDOT":0.00075160596},{"OBJECT_NAME":"STARLINK-36378","OBJECT_ID":"2026-040L","EPOCH":"2026-03-14T22:00:01.999584","MEAN_MOTION":15.93566941,"ECCENTRICITY":0.00011067,"INCLINATION":97.2735,"RA_OF_ASC_NODE":22.5577,"ARG_OF_PERICENTER":88.9384,"MEAN_ANOMALY":270.9113,"EPHEMERIS_TYPE":0,"CLASSIFICATION_TYPE":"U","NORAD_CAT_ID":68025,"ELEMENT_SET_NO":999,"REV_AT_EPOCH":321,"BSTAR":-0.0045923716,"MEAN_MOTION_DOT":-0.01627548,"MEAN_MOTION_DDOT":0.00075397209},{"OBJECT_NAME":"STARLINK-36884","OBJECT_ID":"2026-040M","EPOCH":"2026-03-14T22:00:01.999584","MEAN_MOTION":15.93524138,"ECCENTRICITY":0.00010991,"INCLINATION":97.2726,"RA_OF_ASC_NODE":22.5547,"ARG_OF_PERICENTER":88.3335,"MEAN_ANOMALY":267.2635,"EPHEMERIS_TYPE":0,"CLASSIFICATION_TYPE":"U","NORAD_CAT_ID":68026,"ELEMENT_SET_NO":999,"REV_AT_EPOCH":326,"BSTAR":-0.0045783942,"MEAN_MOTION_DOT":-0.01619067,"MEAN_MOTION_DDOT":0.00074636491},{"OBJECT_NAME":"STARLINK-36940","OBJECT_ID":"2026-040N","EPOCH":"2026-03-14T22:00:01.999584","MEAN_MOTION":15.93411505,"ECCENTRICITY":0.00012947,"INCLINATION":97.2794,"RA_OF_ASC_NODE":22.5877,"ARG_OF_PERICENTER":81.7277,"MEAN_ANOMALY":348.1448,"EPHEMERIS_TYPE":0,"CLASSIFICATION_TYPE":"U","NORAD_CAT_ID":68027,"ELEMENT_SET_NO":999,"REV_AT_EPOCH":336,"BSTAR":-0.0057596959,"MEAN_MOTION_DOT":-0.02019632,"MEAN_MOTION_DDOT":0.0011270125},{"OBJECT_NAME":"STARLINK-36253","OBJECT_ID":"2026-040P","EPOCH":"2026-03-14T22:00:01.999584","MEAN_MOTION":15.80692848,"ECCENTRICITY":0.00015945,"INCLINATION":97.2838,"RA_OF_ASC_NODE":22.378,"ARG_OF_PERICENTER":45.5136,"MEAN_ANOMALY":261.4977,"EPHEMERIS_TYPE":0,"CLASSIFICATION_TYPE":"U","NORAD_CAT_ID":68028,"ELEMENT_SET_NO":999,"REV_AT_EPOCH":336,"BSTAR":0.00068620016,"MEAN_MOTION_DOT":0.00132568,"MEAN_MOTION_DDOT":0},{"OBJECT_NAME":"STARLINK-36944","OBJECT_ID":"2026-040Q","EPOCH":"2026-03-14T22:00:01.999584","MEAN_MOTION":15.93620321,"ECCENTRICITY":0.00010769,"INCLINATION":97.2725,"RA_OF_ASC_NODE":22.5576,"ARG_OF_PERICENTER":84.0056,"MEAN_ANOMALY":279.7981,"EPHEMERIS_TYPE":0,"CLASSIFICATION_TYPE":"U","NORAD_CAT_ID":68029,"ELEMENT_SET_NO":999,"REV_AT_EPOCH":326,"BSTAR":-0.0046068365,"MEAN_MOTION_DOT":-0.01637117,"MEAN_MOTION_DDOT":0.00076264552},{"OBJECT_NAME":"STARLINK-36942","OBJECT_ID":"2026-040R","EPOCH":"2026-03-14T22:00:01.999584","MEAN_MOTION":15.93656787,"ECCENTRICITY":0.00011779,"INCLINATION":97.2741,"RA_OF_ASC_NODE":22.5607,"ARG_OF_PERICENTER":89.0205,"MEAN_ANOMALY":279.1186,"EPHEMERIS_TYPE":0,"CLASSIFICATION_TYPE":"U","NORAD_CAT_ID":68030,"ELEMENT_SET_NO":999,"REV_AT_EPOCH":326,"BSTAR":-0.0046017236,"MEAN_MOTION_DOT":-0.01638426,"MEAN_MOTION_DDOT":0.00076406443},{"OBJECT_NAME":"STARLINK-36913","OBJECT_ID":"2026-040S","EPOCH":"2026-03-14T22:00:01.999584","MEAN_MOTION":15.93695341,"ECCENTRICITY":0.00011052,"INCLINATION":97.2745,"RA_OF_ASC_NODE":22.5625,"ARG_OF_PERICENTER":97.1498,"MEAN_ANOMALY":275.3061,"EPHEMERIS_TYPE":0,"CLASSIFICATION_TYPE":"U","NORAD_CAT_ID":68031,"ELEMENT_SET_NO":999,"REV_AT_EPOCH":326,"BSTAR":-0.0046026754,"MEAN_MOTION_DOT":-0.01642018,"MEAN_MOTION_DDOT":0.00076748203},{"OBJECT_NAME":"STARLINK-36935","OBJECT_ID":"2026-040T","EPOCH":"2026-03-14T22:00:01.999584","MEAN_MOTION":15.94029026,"ECCENTRICITY":0.00011334,"INCLINATION":97.277,"RA_OF_ASC_NODE":22.575,"ARG_OF_PERICENTER":94.1288,"MEAN_ANOMALY":308.2146,"EPHEMERIS_TYPE":0,"CLASSIFICATION_TYPE":"U","NORAD_CAT_ID":68032,"ELEMENT_SET_NO":999,"REV_AT_EPOCH":336,"BSTAR":-0.0046111206,"MEAN_MOTION_DOT":-0.01673695,"MEAN_MOTION_DDOT":0.00079797911},{"OBJECT_NAME":"STARLINK-36947","OBJECT_ID":"2026-040U","EPOCH":"2026-03-14T22:00:01.999584","MEAN_MOTION":15.9376158,"ECCENTRICITY":0.00010669,"INCLINATION":97.2747,"RA_OF_ASC_NODE":22.5641,"ARG_OF_PERICENTER":87.7525,"MEAN_ANOMALY":288.458,"EPHEMERIS_TYPE":0,"CLASSIFICATION_TYPE":"U","NORAD_CAT_ID":68033,"ELEMENT_SET_NO":999,"REV_AT_EPOCH":326,"BSTAR":-0.0046169924,"MEAN_MOTION_DOT":-0.01652715,"MEAN_MOTION_DDOT":0.00077733085},{"OBJECT_NAME":"STARLINK-36939","OBJECT_ID":"2026-040V","EPOCH":"2026-03-14T22:00:01.999584","MEAN_MOTION":15.93962432,"ECCENTRICITY":0.00011685,"INCLINATION":97.2772,"RA_OF_ASC_NODE":22.5719,"ARG_OF_PERICENTER":91.8357,"MEAN_ANOMALY":300.9335,"EPHEMERIS_TYPE":0,"CLASSIFICATION_TYPE":"U","NORAD_CAT_ID":68034,"ELEMENT_SET_NO":999,"REV_AT_EPOCH":326,"BSTAR":-0.0046023919,"MEAN_MOTION_DOT":-0.01664808,"MEAN_MOTION_DDOT":0.00078957275},{"OBJECT_NAME":"STARLINK-36943","OBJECT_ID":"2026-040W","EPOCH":"2026-03-14T22:00:01.999584","MEAN_MOTION":15.93812726,"ECCENTRICITY":0.00010671,"INCLINATION":97.279,"RA_OF_ASC_NODE":22.5819,"ARG_OF_PERICENTER":87.4403,"MEAN_ANOMALY":326.7968,"EPHEMERIS_TYPE":0,"CLASSIFICATION_TYPE":"U","NORAD_CAT_ID":68035,"ELEMENT_SET_NO":999,"REV_AT_EPOCH":331,"BSTAR":-0.0047688102,"MEAN_MOTION_DOT":-0.01710944,"MEAN_MOTION_DDOT":0.00082948149}]
